[{"OBJECT_NAME":"ONEWEB-0264","OBJECT_ID":"2021-060R","EPOCH":"2026-03-09T22:22:27.938784","MEAN_MOTION":13.16592235,"ECCENTRICITY":0.00015341,"INCLINATION":87.9003,"RA_OF_ASC_NODE":248.5268,"ARG_OF_PERICENTER":102.9843,"MEAN_ANOMALY":257.146,"EPHEMERIS_TYPE":0,"CLASSIFICATION_TYPE":"U","NORAD_CAT_ID":48982,"ELEMENT_SET_NO":999,"REV_AT_EPOCH":22653,"BSTAR":0.00012518342,"MEAN_MOTION_DOT":6.1e-7,"MEAN_MOTION_DDOT":0},{"OBJECT_NAME":"NOVA 2","OBJECT_ID":"1988-052A","EPOCH":"2026-03-09T23:11:20.030784","MEAN_MOTION":13.22947678,"ECCENTRICITY":0.00318309,"INCLINATION":89.9782,"RA_OF_ASC_NODE":78.1217,"ARG_OF_PERICENTER":130.8768,"MEAN_ANOMALY":288.9552,"EPHEMERIS_TYPE":0,"CLASSIFICATION_TYPE":"U","NORAD_CAT_ID":19223,"ELEMENT_SET_NO":999,"REV_AT_EPOCH":82101,"BSTAR":0.00015204319,"MEAN_MOTION_DOT":7.3e-7,"MEAN_MOTION_DDOT":0}]
